[{"OBJECT_NAME":"ICEYE-X6","OBJECT_ID":"2020-068M","EPOCH":"2026-03-09T22:38:15.311328","MEAN_MOTION":15.03906063,"ECCENTRICITY":0.00090855,"INCLINATION":98.0946,"RA_OF_ASC_NODE":57.9399,"ARG_OF_PERICENTER":68.4739,"MEAN_ANOMALY":291.7454,"EPHEMERIS_TYPE":0,"CLASSIFICATION_TYPE":"U","NORAD_CAT_ID":46497,"ELEMENT_SET_NO":999,"REV_AT_EPOCH":29831,"BSTAR":0.00025875904,"MEAN_MOTION_DOT":3.502e-5,"MEAN_MOTION_DDOT":0},{"OBJECT_NAME":"STARLINK-3679","OBJECT_ID":"2022-025T","EPOCH":"2026-03-09T07:06:27.034272","MEAN_MOTION":15.06397139,"ECCENTRICITY":0.00012849,"INCLINATION":53.0552,"RA_OF_ASC_NODE":32.5908,"ARG_OF_PERICENTER":96.4999,"MEAN_ANOMALY":263.6136,"EPHEMERIS_TYPE":0,"CLASSIFICATION_TYPE":"U","NORAD_CAT_ID":51973,"ELEMENT_SET_NO":999,"REV_AT_EPOCH":22086,"BSTAR":1.45703e-5,"MEAN_MOTION_DOT":-6.4e-7,"MEAN_MOTION_DDOT":0}]
